[{"OBJECT_NAME":"XINGYUN-2 01","OBJECT_ID":"2020-028A","EPOCH":"2026-03-09T23:27:57.512736","MEAN_MOTION":15.11323975,"ECCENTRICITY":0.00090563,"INCLINATION":97.4853,"RA_OF_ASC_NODE":63.3977,"ARG_OF_PERICENTER":174.572,"MEAN_ANOMALY":185.561,"EPHEMERIS_TYPE":0,"CLASSIFICATION_TYPE":"U","NORAD_CAT_ID":45602,"ELEMENT_SET_NO":999,"REV_AT_EPOCH":31985,"BSTAR":0.000253969,"MEAN_MOTION_DOT":4.22e-5,"MEAN_MOTION_DDOT":0},{"OBJECT_NAME":"STARLINK-3504","OBJECT_ID":"2022-022AF","EPOCH":"2026-03-09T23:20:06.291456","MEAN_MOTION":15.08831295,"ECCENTRICITY":0.00013421,"INCLINATION":53.2199,"RA_OF_ASC_NODE":357.8527,"ARG_OF_PERICENTER":84.516,"MEAN_ANOMALY":275.5985,"EPHEMERIS_TYPE":0,"CLASSIFICATION_TYPE":"U","NORAD_CAT_ID":51881,"ELEMENT_SET_NO":999,"REV_AT_EPOCH":22334,"BSTAR":4.0877905e-5,"MEAN_MOTION_DOT":3.63e-6,"MEAN_MOTION_DDOT":0}]
